[{"OBJECT_NAME":"YAOGAN-43 03B","OBJECT_ID":"2024-190B","EPOCH":"2026-03-09T13:02:57.184224","MEAN_MOTION":15.23292973,"ECCENTRICITY":0.00065493,"INCLINATION":34.9874,"RA_OF_ASC_NODE":104.3622,"ARG_OF_PERICENTER":178.8126,"MEAN_ANOMALY":181.2605,"EPHEMERIS_TYPE":0,"CLASSIFICATION_TYPE":"U","NORAD_CAT_ID":61618,"ELEMENT_SET_NO":999,"REV_AT_EPOCH":7666,"BSTAR":0.00046413742,"MEAN_MOTION_DOT":0.00011265,"MEAN_MOTION_DDOT":0},{"OBJECT_NAME":"OBJECT M","OBJECT_ID":"2025-313M","EPOCH":"2026-03-09T22:20:16.857024","MEAN_MOTION":15.2204252,"ECCENTRICITY":0.00144876,"INCLINATION":97.404,"RA_OF_ASC_NODE":145.2434,"ARG_OF_PERICENTER":355.7069,"MEAN_ANOMALY":4.404,"EPHEMERIS_TYPE":0,"CLASSIFICATION_TYPE":"U","NORAD_CAT_ID":67259,"ELEMENT_SET_NO":999,"REV_AT_EPOCH":1085,"BSTAR":0.00067362999,"MEAN_MOTION_DOT":0.00015392,"MEAN_MOTION_DDOT":0}]
